NORAD_CAT_ID,OBJECT_NAME,OBJECT_TYPE,EPOCH,MEAN_MOTION,ECCENTRICITY,INCLINATION,RA_OF_ASC_NODE,ARG_OF_PERICENTER,MEAN_ANOMALY,BSTAR,MEAN_MOTION_DOT,MEAN_MOTION_DDOT,TLE_LINE0,TLE_LINE1,TLE_LINE2,SEMIMAJOR_AXIS,PERIOD,APOGEE,PERIGEE,DECAYED
51791.0,STARLINK-3602,PAYLOAD,2023-06-07 19:08:29,15.08837055,9.75e-05,53.2156,184.7449,82.7415,277.3688,1.0973e-05,-1.13e-06,0.0,0 STARLINK-3602,1 51791U 22017Z   23158.79755963 -.00000113  00000-0  10973-4 0  9995,2 51791  53.2156 184.7449 0000975  82.7415 277.3688 15.08837055 72060,6917.889,95.438,540.429,539.08,0.0
51791.0,STARLINK-3602,PAYLOAD,2023-06-08 01:30:01,15.08834956,9.74e-05,53.2155,183.5557,83.9555,276.1549,6.9857e-06,-1.77e-06,0.0,0 STARLINK-3602,1 51791U 22017Z   23159.06252158 -.00000177  00000-0  69857-5 0  9990,2 51791  53.2155 183.5557 0000974  83.9555 276.1549 15.08834956 72108,6917.896,95.438,540.435,539.087,0.0
51791.0,STARLINK-3602,PAYLOAD,2023-06-08 11:02:20,15.08836393,9.64e-05,53.2155,181.7715,82.9328,277.1774,-6.0413e-06,-3.84e-06,0.0,0 STARLINK-3602,1 51791U 22017Z   23159.45996203 -.00000384  00000-0 -60413-5 0  9999,2 51791  53.2155 181.7715 0000964  82.9328 277.1774 15.08836393 72164,6917.891,95.438,540.423,539.09,0.0
51791.0,STARLINK-3602,PAYLOAD,2023-06-09 07:42:21,15.08841596,9.73e-05,53.2155,177.9056,81.2597,278.8505,2.9587e-05,1.83e-06,0.0,0 STARLINK-3602,1 51791U 22017Z   23160.32107775  .00000183  00000-0  29587-4 0  9996,2 51791  53.2155 177.9056 0000973  81.2597 278.8505 15.08841596 72294,6917.876,95.437,540.414,539.067,0.0
51791.0,STARLINK-3602,PAYLOAD,2023-06-10 10:43:54,15.08838485,9.79e-05,53.2157,172.8507,77.1637,282.9465,6.2338e-05,7.04e-06,0.0,0 STARLINK-3602,1 51791U 22017Z   23161.44715924  .00000704  00000-0  62338-4 0  9991,2 51791  53.2157 172.8507 0000979  77.1637 282.9465 15.08838485 72469,6917.885,95.438,540.427,539.073,0.0
51791.0,STARLINK-3602,PAYLOAD,2023-06-11 10:34:41,15.08840201,0.0001026,53.2157,168.3904,76.9472,283.1634,2.3843e-05,9.2e-07,0.0,0 STARLINK-3602,1 51791U 22017Z   23162.44076008  .00000092  00000-0  23843-4 0  9993,2 51791  53.2157 168.3904 0001026  76.9472 283.1634 15.08840201 72615,6917.88,95.438,540.455,539.035,0.0
51791.0,STARLINK-3602,PAYLOAD,2023-06-11 16:56:14,15.08837916,0.000103,53.2157,167.2008,76.2501,283.8606,4.4826e-06,-2.16e-06,0.0,0 STARLINK-3602,1 51791U 22017Z   23162.70572216 -.00000216  00000-0  44826-5 0  9998,2 51791  53.2157 167.2008 0001030  76.2501 283.8606 15.08837916 72658,6917.887,95.438,540.464,539.039,0.0
51791.0,STARLINK-3602,PAYLOAD,2023-06-12 00:53:10,15.08837707,0.0001022,53.2157,165.7138,75.9135,284.1971,1.8378e-05,5e-08,0.0,0 STARLINK-3602,1 51791U 22017Z   23163.03692204  .00000005  00000-0  18378-4 0  9992,2 51791  53.2157 165.7138 0001022  75.9135 284.1971 15.08837707 72708,6917.887,95.438,540.459,539.045,0.0
51791.0,STARLINK-3602,PAYLOAD,2023-06-12 07:14:42,15.08839216,0.0001035,53.2157,164.5243,75.8497,284.261,2.9316e-05,1.79e-06,0.0,0 STARLINK-3602,1 51791U 22017Z   23163.30188095  .00000179  00000-0  29316-4 0  9996,2 51791  53.2157 164.5243 0001035  75.8497 284.2610 15.08839216 72748,6917.883,95.438,540.464,539.032,0.0
51791.0,STARLINK-3602,PAYLOAD,2023-06-12 16:47:01,15.08836682,0.0001029,53.2157,162.7403,74.6054,285.5052,-1.121e-06,-3.06e-06,0.0,0 STARLINK-3602,1 51791U 22017Z   23163.69932395 -.00000306  00000-0 -11210-5 0  9997,2 51791  53.2157 162.7403 0001029  74.6054 285.5052 15.08836682 72800,6917.891,95.438,540.467,539.044,0.0
51791.0,STARLINK-3602,PAYLOAD,2023-06-13 08:40:53,15.08834968,0.0001035,53.2158,159.7667,76.0521,284.0586,-2.3094e-06,-3.25e-06,0.0,0 STARLINK-3602,1 51791U 22017Z   23164.36172684 -.00000325  00000-0 -23094-5 0  9993,2 51791  53.2158 159.7667 0001035  76.0521 284.0586 15.08834968 72903,6917.896,95.438,540.477,539.045,0.0
51791.0,STARLINK-3602,PAYLOAD,2023-06-14 00:34:44,15.08837551,0.0001061,53.2159,156.7931,79.2998,280.8113,2.7493e-05,1.5e-06,0.0,0 STARLINK-3602,1 51791U 22017Z   23165.02412545  .00000150  00000-0  27493-4 0  9990,2 51791  53.2159 156.7931 0001061  79.2998 280.8113 15.08837551 73000,6917.888,95.438,540.487,539.019,0.0
51791.0,STARLINK-3602,PAYLOAD,2023-06-14 16:28:35,15.0883933,0.0001097,53.2165,153.82,80.3135,279.7981,5.1963e-05,5.39e-06,0.0,0 STARLINK-3602,1 51791U 22017Z   23165.68652409  .00000539  00000-0  51963-4 0  9997,2 51791  53.2165 153.8200 0001097  80.3135 279.7981 15.08839330 73107,6917.882,95.438,540.506,538.989,0.0
51791.0,STARLINK-3602,PAYLOAD,2023-06-15 06:47:03,15.08839002,0.0001106,53.2162,151.1429,82.7105,277.4012,5.157e-05,5.33e-06,0.0,0 STARLINK-3602,1 51791U 22017Z   23166.28268485  .00000533  00000-0  51570-4 0  9999,2 51791  53.2162 151.1429 0001106  82.7105 277.4012 15.08839002 73197,6917.883,95.438,540.514,538.983,0.0
51791.0,STARLINK-3602,PAYLOAD,2023-06-15 16:19:22,15.08840056,0.0001117,53.2163,149.3591,81.6625,278.4494,4.7342e-05,4.66e-06,0.0,0 STARLINK-3602,1 51791U 22017Z   23166.68012444  .00000466  00000-0  47342-4 0  9992,2 51791  53.2163 149.3591 0001117  81.6625 278.4494 15.08840056 73257,6917.88,95.438,540.518,538.972,0.0
51791.0,STARLINK-3602,PAYLOAD,2023-06-16 08:13:13,15.0884651,0.0001128,53.2161,146.385,83.3194,276.7927,5.9661e-05,6.62e-06,0.0,0 STARLINK-3602,1 51791U 22017Z   23167.34251866  .00000662  00000-0  59661-4 0  9994,2 51791  53.2161 146.3850 0001128  83.3194 276.7927 15.08846510 73356,6917.86,95.437,540.506,538.945,0.0
51791.0,STARLINK-3602,PAYLOAD,2023-06-16 16:10:09,15.08844177,0.0001127,53.216,144.8984,82.2723,277.8397,5.0483e-05,5.16e-06,0.0,0 STARLINK-3602,1 51791U 22017Z   23167.67371924  .00000516  00000-0  50483-4 0  9999,2 51791  53.2160 144.8984 0001127  82.2723 277.8397 15.08844177 73407,6917.868,95.437,540.512,538.953,0.0
51791.0,STARLINK-3602,PAYLOAD,2023-06-17 08:04:00,15.0884104,0.0001194,53.2162,141.9242,87.9313,272.1816,2.4463e-05,1.02e-06,0.0,0 STARLINK-3602,1 51791U 22017Z   23168.33612129  .00000102  00000-0  24463-4 0  9998,2 51791  53.2162 141.9242 0001194  87.9313 272.1816 15.08841040 73506,6917.877,95.437,540.568,538.916,0.0
51791.0,STARLINK-3602,PAYLOAD,2023-06-18 04:44:02,15.08834592,0.0001301,53.2167,138.0568,96.4901,263.6239,-7.1663e-05,-1.428e-05,0.0,0 STARLINK-3602,1 51791U 22017Z   23169.19724964 -.00001428  00000-0 -71663-4 0  9992,2 51791  53.2167 138.0568 0001301  96.4901 263.6239 15.08834592 73639,6917.897,95.438,540.662,538.862,0.0
51791.0,STARLINK-3602,PAYLOAD,2023-06-19 07:45:35,15.0884012,0.0001196,53.2165,133.0038,97.795,262.3178,3.1721e-05,2.17e-06,0.0,0 STARLINK-3602,1 51791U 22017Z   23170.32332546  .00000217  00000-0  31721-4 0  9994,2 51791  53.2165 133.0038 0001196  97.7950 262.3178 15.08840120 73805,6917.88,95.438,540.572,538.918,0.0
51791.0,STARLINK-3602,PAYLOAD,2023-06-19 14:07:08,15.08836541,0.0001146,53.2164,131.8147,104.3752,255.7367,6.0216e-06,-1.92e-06,0.0,0 STARLINK-3602,1 51791U 22017Z   23170.58828880 -.00000192  00000-0  60216-5 0  9998,2 51791  53.2164 131.8147 0001146 104.3752 255.7367 15.08836541 73843,6917.891,95.438,540.549,538.963,0.0
51791.0,STARLINK-3602,PAYLOAD,2023-06-20 04:25:36,15.08830108,0.0001172,53.2169,129.1382,95.5885,264.5241,4.0079e-05,3.5e-06,0.0,0 STARLINK-3602,1 51791U 22017Z   23171.18445586  .00000350  00000-0  40079-4 0  9992,2 51791  53.2169 129.1382 0001172  95.5885 264.5241 15.08830108 73938,6917.911,95.438,540.586,538.965,0.0
51791.0,STARLINK-3602,PAYLOAD,2023-06-20 07:36:23,15.08832927,0.0001169,53.217,128.5432,93.0472,267.0654,4.4227e-05,4.16e-06,0.0,0 STARLINK-3602,1 51791U 22017Z   23171.31693400  .00000416  00000-0  44227-4 0  9999,2 51791  53.2170 128.5432 0001169  93.0472 267.0654 15.08832927 73959,6917.902,95.438,540.576,538.958,0.0
51791.0,STARLINK-3602,PAYLOAD,2023-06-20 13:57:55,15.08833431,0.0001167,53.217,127.3538,92.9034,267.2091,3.5247e-05,2.73e-06,0.0,0 STARLINK-3602,1 51791U 22017Z   23171.58189505  .00000273  00000-0  35247-4 0  9997,2 51791  53.2170 127.3538 0001167  92.9034 267.2091 15.08833431 73995,6917.9,95.438,540.573,538.958,0.0
51791.0,STARLINK-3602,PAYLOAD,2023-06-21 02:41:00,15.08840601,0.0001262,53.2167,124.9748,92.4532,267.6604,5.3502e-05,5.64e-06,0.0,0 STARLINK-3602,1 51791U 22017Z   23172.11181141  .00000564  00000-0  53502-4 0  9992,2 51791  53.2167 124.9748 0001262  92.4532 267.6604 15.08840601 74072,6917.879,95.438,540.617,538.871,0.0
51791.0,STARLINK-3602,PAYLOAD,2023-06-21 05:51:46,15.08843862,0.0001204,53.2171,124.3802,91.9525,268.1605,8.5122e-05,1.067e-05,0.0,0 STARLINK-3602,1 51791U 22017Z   23172.24428832  .00001067  00000-0  85122-4 0  9999,2 51791  53.2171 124.3802 0001204  91.9525 268.1605 15.08843862 74095,6917.869,95.437,540.566,538.901,0.0
51791.0,STARLINK-3602,PAYLOAD,2023-06-21 13:48:42,15.08842909,0.0001273,53.2184,122.8942,90.5766,269.5372,-2.2601e-05,-6.48e-06,0.0,0 STARLINK-3602,1 51791U 22017Z   23172.57549175 -.00000648  00000-0 -22601-4 0  9998,2 51791  53.2184 122.8942 0001273  90.5766 269.5372 15.08842909 74148,6917.871,95.437,540.617,538.856,0.0
51791.0,STARLINK-3602,PAYLOAD,2023-06-22 04:07:11,15.08838659,0.0001215,53.2175,120.2189,86.2132,273.8999,-6.4862e-05,-1.32e-05,0.0,0 STARLINK-3602,1 51791U 22017Z   23173.17165950 -.00001320  00000-0 -64862-4 0  9993,2 51791  53.2175 120.2189 0001215  86.2132 273.8999 15.08838659 74238,6917.884,95.438,540.59,538.909,0.0
51791.0,STARLINK-3602,PAYLOAD,2023-06-23 02:22:34,15.08848381,0.0001085,53.2162,116.0543,92.1548,267.9568,1.3523e-05,-7.3e-07,0.0,0 STARLINK-3602,1 51791U 22017Z   23174.09901061 -.00000073  00000-0  13523-4 0  9997,2 51791  53.2162 116.0543 0001085  92.1548 267.9568 15.08848381 74377,6917.855,95.437,540.47,538.969,0.0
51791.0,STARLINK-3602,PAYLOAD,2023-06-24 02:13:21,15.08841411,0.0001215,53.2167,111.5931,96.5994,263.5136,6.3361e-05,7.21e-06,0.0,0 STARLINK-3602,1 51791U 22017Z   23175.09261221  .00000721  00000-0  63361-4 0  9999,2 51791  53.2167 111.5931 0001215  96.5994 263.5136 15.08841411 74528,6917.876,95.437,540.582,538.901,0.0
